#dP2023 12  2  0  0  0.00000000      97 __u+U IGS20 FIT  IAC
## 2290 518400.00000000   900.00000000 60280 0.0000000000000
+  119   C06C07C08C09C10C11C12C13C14C16C19C20C21C22C23C24C25
+        C26C27C28C29C30C32C33C34C35C36C37C38C39C40C41C42C43
+        C44C45C46E02E03E04E05E07E08E09E10E11E12E13E15E18E19
+        E21E24E25E26E27E30E31E33E34E36G01G02G03G04G05G06G07
+        G08G09G10G11G12G13G14G15G16G17G18G19G20G21G22G23G24
+        G25G26G27G28G29G30G31G32J02J03J04R01R02R03R04R05R07
+        R08R09R11R12R13R14R15R16R17R18R19R20R21R22R24R25R26
++         7  7  8  7  7  7  6  7  7  7  6  6  6  5  6  6  6
++         5  6  6  6  6  6  6  6  6  5  6  6  6  6  6  6  6
++         5  6  5  4  4  4  4  4  4  4  4  4  4  4  4  4  4
++         4  4  4  4  4  4  4  4  4  4  4  3  3  4  3  3  3
++         3  3  3  4  3  3  3  3  4  3  3  3  4  3  3  3  3
++         3  4  3  5  3  3  4  4  9  9  9  8  6  6  7  6  7
++         7  7  7  7  7  6  7  7  7  6  8  8  7  7  7  8  8
%c M  cc GPS ccc cccc cccc cccc cccc ccccc ccccc ccccc ccccc
%c cc cc ccc ccc cccc cccc cccc cccc ccccc ccccc ccccc ccccc
%f  1.2500000  1.025000000  0.00000000000  0.000000000000000
%f  0.0000000  0.000000000  0.00000000000  0.000000000000000
%i    0    0    0    0      0      0      0      0         0
%i    0    0    0    0      0      0      0      0         0
/* INFORMATION & ANALYSIS CENTER (IAC)            FINAL DATA
/* S/V CLOCKS ARE ALIGNED TO GNSS TIME                      
/* G:C1WC2W R:C1PC2P E:C1XC5X C:C2IC6I J:C1CC2S             
/* PCV:IGS20_2290 OL/AL:FES2004  NONE     YN ORB:CoN CLK:CoN
*  2023 12 02 17 15  0.00000000
PC06  -6912.548695  23730.012514 -34116.368963     50.973698
PC07 -16468.934156  35890.597709  14610.236944   -411.573411
PC08  -1927.115952  38774.920949  16722.170474    205.326433
PC09   4302.083430  26733.360293 -31758.068077   -165.531794
PC10  -7948.278230  35426.262014  21340.312694    -38.592588
PC11  -4113.405108 -15571.170602 -22710.067699    286.018717
PC12  16930.383549 -11214.372520 -19095.947408    838.901668
PC13   1972.917955  40713.371133  11516.920050    390.587356
PC14   3289.559636 -23306.911431  15038.440552    901.754236
PC16  -9615.481422  22042.084032 -34404.116581   -205.521102
PC19   4846.127875  17980.346038 -20760.564484   -958.915383
PC20  -9680.271710  24734.066132  -8518.258581     64.708142
PC21  19683.723511 -17062.538885 -10023.064245   -969.254389
PC22  17454.745048    500.434259 -21779.641022   -202.108335
PC23 -19026.698006 -12970.398276 -15759.675669   -810.578658
PC24   1770.677260 -22732.884007  16048.818628    653.962241
PC25 -13196.410354 -24569.156049   -518.676022    269.029459
PC26  14136.485935  -8125.659501  22626.216177   -214.559513
PC27 -23709.262090   7165.807977  12850.072260    236.530588
PC28 -27489.702353  -3989.318110  -2653.056765    178.766305
PC29  14831.785578  13957.482458  19077.364489    209.228844
PC30  -7192.358929  15311.260471  22194.435338     -9.544271
PC32 -19577.640581  17101.039686  10152.220024   -539.230000
PC33  -4884.622578 -18063.839990  20703.846998   -942.638895
PC34   5450.595192 -15627.488216 -22472.605160    316.237092
PC35  27611.261454   2927.645547   2592.003914    489.708995
PC36  12114.717110  25146.774649   -301.307411   -109.490127
PC37 -14635.769524   7185.643752 -22642.730535   -908.692801
PC38  -7200.351699  34800.789653  22872.979572    121.496873
PC39 -13180.742583  20888.496731 -34172.988471     -5.902625
PC40 -24077.446544  31543.592051  13899.015371    -46.281460
PC41 -17136.634016  -1302.201458  22033.270136   -872.221984
PC42  10727.027369 -24784.340223   7110.718353   -488.032744
PC43 -13913.010129 -14361.300552 -19479.053445     50.683443
PC44  23507.433322  -8065.086533 -12672.612043    310.729960
PC45  18962.276854  12567.929050  16173.882691    -51.463678
PC46   -859.908717  23314.109845 -15354.949838   -104.373314
PE02  -7147.054719  28276.615713  -5125.861739     83.326653
PE03 -12650.290656  19441.436359 -18396.093670    -77.431001
PE04  -8780.625839 -14658.558188  24170.080607   -270.963479
PE05 -26568.494045  12901.733349  -1991.766740   4696.627170
PE07  24837.781862   1575.753446 -16029.813175    -90.935043
PE08   8116.560803  14819.180432 -24311.257205   -186.061157
PE09 -24723.024584  -1572.001596  16189.375701   -248.729683
PE10 -22868.340500 -18677.983216  -2010.156275   -583.333079
PE11 -25539.447224 -12364.072608   8440.498085   3246.016676
PE12 -16971.749971 -21632.266936 -10973.917220   -801.853868
PE13  25496.218146  12872.185656  -7760.622233    -19.636536
PE15  16605.828875  21654.128213  11480.330765    -72.629752
PE18  15129.730322 -21750.835038 -18542.458981     49.289428
PE19  15110.691951 -19068.553209  16854.774682  -1095.640569
PE21  15760.176046 -15038.284474  20035.581546   -566.950386
PE24 -15572.917856  -8144.888062 -23829.857514   -464.005996
PE25 -15855.284065  14670.475754 -20238.818882     -2.553474
PE26  18975.031500  -3980.774828 -22356.790873    298.091174
PE27  15666.934625   7584.515266  23943.863919   -214.377310
PE30   6075.730417  25685.746361  13406.251412   -709.740051
PE31  -6344.070705 -25455.542907 -13695.070238    -11.008389
PE33   2471.706128 -17308.435250 -23872.839442      3.464943
PE34  -1826.368451  17642.480433  23703.021071    -81.176124
PE36 -19340.608683   3307.109144  22172.630114   -152.186330
PG01 -22065.349567 -14731.484169   3046.644480    163.507833
PG02 -21296.882402 -15709.479194  -2851.358909   -521.049187
PG03 -12168.524754 -11915.475898  20264.772742     26.168843
PG04 -20972.539631  -3765.438960  15945.445864    228.868553
PG05   6834.898206  22559.184268 -12328.519384   -152.613943
PG06  -4355.859737  14684.047084  21757.916832    489.720485
PG07 -20911.451037  -1310.141440 -16118.185368     -1.756090
PG08 -14424.196538  -9251.072502 -20477.931447   -154.981348
PG09 -24953.375566   6131.113104   6757.296987     14.662384
PG10  10776.179476 -20600.010897 -12337.642807    -63.717786
PG11   6646.405084  20040.786878  16167.718883   -484.682932
PG12  11200.507040  13683.077715  19563.361168   -453.262130
PG13   3417.165892  14715.645291 -22044.636542    601.512373
PG14 -13350.678486  17428.686836 -14799.707839    259.788646
PG15  15376.250582   8371.758441 -20514.374012    102.967783
PG16   -297.892077 -25207.969433  -7893.408215   -411.543245
PG17 -21789.575732  13420.191590   7798.782908    722.563080
PG18  19621.456082   -174.638991 -17971.859930   -495.545078
PG19 -15411.505572  15338.668873  14816.480080    407.001631
PG20    879.350978  26637.001442    731.981095    398.655075
PG21 -19815.261391 -17224.782932  -6014.683974    142.677211
PG22 -10626.009131  22990.836251  -8025.429646     73.199522
PG23  14573.461270  -8848.918784 -20299.404892    109.011080
PG24  21294.834432  15985.944868  -3333.791129   -384.678196
PG25  15296.577547     92.010905  21374.392361    479.878404
PG26   3206.355831 -26011.068623   2716.126403    212.364848
PG27    -37.492921 -16087.499786 -21320.909043    -77.857552
PG28   6286.225959 -14037.117640  21627.718144    -60.021879
PG29  25353.480451  -3373.753312   7310.152155   -610.016180
PG30 -13919.118095   8706.958865 -20797.409782   -461.899019
PG31  -1546.757864 -18244.296585  18885.914373   -226.264490
PG32  18395.750713 -16025.838052  10422.459597   -592.260184
PJ02 -23303.468348  31054.425555 -11664.358578     -0.381175
PJ03 -27217.486894  22977.060057  27769.887865    -10.388875
PJ04 -32036.574992  27374.495929   8274.596624     73.392378
PR01  -6950.736282  -8604.104195  22982.379518     71.201445
PR02 -17756.975647   6440.532684  17221.558562    -22.323020
PR03 -18329.099295  17727.943278   1541.702689     90.152994
PR04  -9090.071708  18789.109874 -14653.883849    213.551472
PR05   5120.865243   9913.772705 -22933.387316    123.189312
PR07  18002.868899 -18018.676957   -547.064376     70.452564
PR08   8646.846756 -18833.986975  14898.937089    -73.507557
PR09  12750.362960   5029.279432  21511.270832    156.509311
PR11  -2152.282104 -23508.183828   9691.327435   -217.742786
PR12 -10800.700887 -21035.936659  -9523.287890     34.051225
PR13 -12715.364004  -7700.616622 -20744.543282    -41.904175
PR14  -6789.482389  12891.931954 -20924.905185     25.677377
PR15   2705.865582  23958.990999  -8307.331998     84.299462
PR16  10794.698786  21137.698747   9309.978753     21.174146
PR17 -16035.151728   4874.702306  19228.189964     40.057270
PR18    527.573908  10927.709660  23061.688165    114.878212
PR19  15371.406736  12272.472013  16253.061438   -256.812766
PR20  24536.954265   5863.664521  -3623.541145   -104.503389
PR21  15605.288343  -4949.175649 -19563.832580    -57.922225
PR22  -1252.310946 -11576.541603 -22664.280203     96.356426
PR24 -24742.385220  -4498.383038   4238.588575    -34.404013
PR25  16331.528383  -4413.181291 -19089.306357     -2.465955
PR26   9102.809800 -19077.950694  14306.732754    -14.098517
EOF
